First Name,Last Name,Street,City,Postcode,Country,Phone Number
Refugia,Madison,22 Fraserburgh Rd,Lincoln,LN2 9LB,United Kingdom,+44 79 8606 2695
Jeanelle,Patel,15 Abingdon Road,Branchill,IV36 5UJ,United Kingdom,+44 77 2466 3767
Cassandra,Mcguire,5 Scotsburn Rd,Talla Linnfoots,ML12 1GS,United Kingdom,+44 70 0791 6694
Armida,Gray,83 Abbey Row,Nyetimber,PO21 9GW,United Kingdom,+44 78 8673 7655
Gail,Richey,65 Mounthoolie Lane,Sutton,SY2 5AP,United Kingdom,+44 70 1063 8159
Myrtie,Blair,69 Terrick Rd,Ellerton,DL10 9ZZ,United Kingdom,+44 78 3598 6585
Winter,Seymour,60 Park Row,Edinburgh,EH3 9HL,United Kingdom,+44 78 2000 8538
Micheal,Dunlap,92 Warren St,West End,KT10 5WQ,United Kingdom,+44 70 8240 5331
Loida,Woodson,22 Northgate Street,Bicknoller,TA4 6WG,United Kingdom,+44 78 8806 3683
Gary,Kruse,52 Long Street,Millington,YO4 7AD,United Kingdom,+44 79 7677 7169
Alica,Gonzales,7 Stone Cellar Road,Kingswood Common,HR5 0RL,United Kingdom,+44 70 0489 0605
Brandy,Dooley,88 Russell Rd,Shillmoor,NE65 0YN,United Kingdom,+44 78 7203 9094
Mark,Self,47 Stamford Road,Anie,FK17 4TA,United Kingdom,+44 70 2793 0046
Demetrius,Norris,45 Leicester Road,Axford,RG25 3DP,United Kingdom,+44 77 2908 0773
Velma,Best,35 Earls Avenue,Whitecraig,EH22 5DJ,United Kingdom,+44 79 1167 4500
Ethan,Eastman,71 Old Chapel Road,Garvie,PA22 2WJ,United Kingdom,+44 79 0418 2646
Lisabeth,Sanders,40 Academy Street,Benniworth,LN3 7UG,United Kingdom,+44 70 2238 7393
Goldie,Kimball,72 Pier Road,Stanton Long,TF13 2DR,United Kingdom,+44 78 3167 5133
Marna,Pettit,57 Warren St,West Charleton,TQ7 2GD,United Kingdom,+44 79 5786 3379
Alesha,Thorne,87 Earls Avenue,Whitley,DN14 5GN,United Kingdom,+44 77 4509 2717
Joe,Schmitt,35 Asfordby Rd,Alderley,GL12 8LW,United Kingdom,+44 79 4042 4430
Selina,Rollins,38 Davids Lane,Strixton,NN29 0JF,United Kingdom,+44 77 8257 4594
Johnie,Walter,10 Wartnaby Road,Achriesgill,IV27 9HG,United Kingdom,+44 70 7570 5862
Diedra,Baldwin,45 Iffley Road,Brisco,CA4 2LG,United Kingdom,+44 78 8401 1806
Tim,Waldron,91 Park Row,Eden Park,BR3 7XQ,United Kingdom,+44 78 1439 2212
Dan,Castaneda,79 Souterhead Road,Lound,DN22 1QL,United Kingdom,+44 78 6666 5114
Mason,Keller,30 Witney Way,Kirkton Of Monikie,DD5 9FG,United Kingdom,+44 79 3607 6093
Bernadine,Langston,45 Merthyr Road,Burghill,HR4 4YJ,United Kingdom,+44 70 7520 1249
Racheal,Costa,41 Tadcaster Rd,Pitch Green,HP27 8ZZ,United Kingdom,+44 78 8001 4003
Kira,Shepard,13 Brynglas Road,Glensluan,PA27 0DY,United Kingdom,+44 79 3384 7920
Magen,Duvall,12 Glandovey Terrace,Trevanson,PL27 9JR,United Kingdom,+44 70 7795 0918
Rolando,Leonard,98 Davids Lane,Suie Lodge Hotel,FK20 7QD,United Kingdom,+44 70 7918 1195
Renea,Camp,65 Stone Cellar Road,Kingsford,DY11 8ZG,United Kingdom,+44 78 8721 4478
Lasandra,Bragg,8 Jesmond Rd,Kilburn,YO6 9EX,United Kingdom,+44 79 7349 9541
Retha,Horner,13 Hindhead Road,East Barsham,NR22 5ET,United Kingdom,+44 79 1762 9776
Tawanna,Mclain,23 Coast Rd,Kirkby Mallory,LE9 5WD,United Kingdom,+44 78 6838 0828
Denice,Byrd,38 Cunnery Rd,Manfield,DL2 8QF,United Kingdom,+44 79 3137 3012
Ismael,London,6 Roman Rd,Ledaig,PA37 0XH,United Kingdom,+44 79 1771 7039
Gaylene,Redmond,13 St Andrews Lane,Cwmcarvan,NP5 8DP,United Kingdom,+44 77 8389 4990
Phyllis,Mayberry,79 Davids Lane,Studham,LU6 4YB,United Kingdom,+44 79 0610 5616
Franklyn,Sandoval,68 Jesmond Rd,Kilmington,BA12 6ZQ,United Kingdom,+44 78 3199 5382
Nona,Allison,23 Bootham Crescent,Rileyhill,WS13 3SR,United Kingdom,+44 77 7275 0950
Gilma,Willis,18 Freezeland Lane,Crabbs Cross,B97 2FH,United Kingdom,+44 77 6077 1269
Clemente,Stevens,23 Vicar Lane,Sandtoft,DN8 1LZ,United Kingdom,+44 77 5686 5384
Benita,Hendrickson,46 Osborne Road,Kilsyth,G65 2XH,United Kingdom,+44 70 8395 3021
Malik,George,34 Lairg Road,Newby,TS8 6EJ,United Kingdom,+44 70 5966 6824
Micaela,Kane,98 Asfordby Rd,Aird Dhail,HS2 9SQ,United Kingdom,+44 70 6735 5293
Mohammed,Bartlett,33 Union Terrace,Lochinver,IV27 1GW,United Kingdom,+44 79 1004 1650
Malissa,Foote,39 Balsham Road,Hartest,IP29 8UQ,United Kingdom,+44 77 5091 4189
Dalia,Maldonado,19 Chapel Lane,Ascot,SL5 8UR,United Kingdom,+44 79 5187 8656
